STARLINK-31034          
1 58785U 24011W   26068.77356333  .00000920  00000+0  43193-4 0  9994
2 58785  53.1594 270.9177 0001206  74.4404 285.6729 15.30193618121748
2025-313BE              
1 67482U 25313BE  26068.69721505  .00077178  00000+0  26504-2 0  9996
2 67482  97.3989 145.3568 0007208 335.3714  24.7181 15.29801687  7972
